[{"OBJECT_NAME":"STARLINK-33852","OBJECT_ID":"2025-083L","EPOCH":"2026-03-09T03:56:16.930176","MEAN_MOTION":15.27602555,"ECCENTRICITY":0.00015254,"INCLINATION":43.0055,"RA_OF_ASC_NODE":8.4238,"ARG_OF_PERICENTER":247.8898,"MEAN_ANOMALY":112.1791,"EPHEMERIS_TYPE":0,"CLASSIFICATION_TYPE":"U","NORAD_CAT_ID":63644,"ELEMENT_SET_NO":999,"REV_AT_EPOCH":5001,"BSTAR":0.00096971681,"MEAN_MOTION_DOT":0.00026537,"MEAN_MOTION_DDOT":0},{"OBJECT_NAME":"GEOSCAN 1 (RS92S1)","OBJECT_ID":"2025-155E","EPOCH":"2026-03-09T22:44:05.846496","MEAN_MOTION":15.28410635,"ECCENTRICITY":0.00087099,"INCLINATION":97.4463,"RA_OF_ASC_NODE":37.403,"ARG_OF_PERICENTER":153.6429,"MEAN_ANOMALY":206.5255,"EPHEMERIS_TYPE":0,"CLASSIFICATION_TYPE":"U","NORAD_CAT_ID":64880,"ELEMENT_SET_NO":999,"REV_AT_EPOCH":6560,"BSTAR":0.00054367431,"MEAN_MOTION_DOT":0.00014993,"MEAN_MOTION_DDOT":0}]
